STARLINK-1365           
1 45590U 20025BM  23284.28149633  .00008215  00000+0  56978-3 0  9990
2 45590  53.0526  98.9199 0001232  98.4530 261.6599 15.06399405191795
STARLINK-1441           
1 45658U 20035B   23283.65856518  .00024670  00000+0  16710-2 0  9995
2 45658  53.0550  61.7199 0001526 108.1042 252.0113 15.06362584185942
STARLINK-1442           
1 45659U 20035C   23284.58334491  .00023284  00000+0  15791-2 0  9998
2 45659  53.0546  57.7334 0001568  92.6465 145.2425 15.06347156185673
STARLINK-1443           
1 45660U 20035D   23284.39944424  .00018350  00000+0  12478-2 0  9999
2 45660  53.0562  58.3958 0001481  95.1540 264.9618 15.06394183185640
STARLINK-1444           
1 45661U 20035E   23283.82074311  .00032432  00000+0  21865-2 0  9993
2 45661  53.0548  60.9906 0001350 102.8295 257.2844 15.06394517185541
STARLINK-1445           
1 45662U 20035F   23284.36627115  .00011980  00000+0  82205-3 0  9991
2 45662  53.0545  58.5465 0002142  85.3310 274.7924 15.06387599185685
STARLINK-1446           
1 45663U 20035G   23284.36995709  .00000455  00000+0  49465-4 0  9996
2 45663  53.0547  58.5232 0001342  85.1318 274.9824 15.06394636185633
STARLINK-1448           
1 45665U 20035J   23284.40312927  .00014165  00000+0  96826-3 0  9993
2 45665  53.0567  58.3801 0001549  94.5752 265.5414 15.06386778185642
STARLINK-1449           
1 45666U 20035K   23284.40640719  .00130277  00000+0  84275-2 0  9994
2 45666  53.0559  58.3288 0001311  80.7365 279.3773 15.07170936185646
STARLINK-1450           
1 45667U 20035L   23284.40955982  .00010672  00000+0  73445-3 0  9990
2 45667  53.0557  58.3766 0001100  70.4368 289.6740 15.06390705185691
STARLINK-1451           
1 45668U 20035M   23284.11099708  .00022636  00000+0  15326-2 0  9990
2 45668  53.0550  59.6910 0001393  97.7379 262.3769 15.06424882185602
STARLINK-1452           
1 45669U 20035N   23284.09350708 -.00000881  00000+0 -40239-4 0  9991
2 45669  53.0552  59.7697 0001366  87.5278 272.5867 15.06398139185587
STARLINK-1453           
1 45670U 20035P   23284.28426721  .00007177  00000+0  50042-3 0  9998
2 45670  53.0560  28.9142 0001208  66.0557 294.0559 15.06384101186041
STARLINK-1454           
1 45671U 20035Q   23284.42893147  .00003902  00000+0  28084-3 0  9998
2 45671  53.0560  58.2656 0001762  86.1027 274.0164 15.06384055185641
STARLINK-1455           
1 45672U 20035R   23284.43907043  .00033394  00000+0  22500-2 0  9995
2 45672  53.0560  28.2168 0001742 103.8422 256.2761 15.06402820186064
STARLINK-1456           
1 45673U 20035S   23284.37734087  .00012734  00000+0  87193-3 0  9990
2 45673  53.0560  58.4973 0001821  65.5805 294.5374 15.06411389185649
STARLINK-1457           
1 45674U 20035T   23284.11931038  .00021530  00000+0  14603-2 0  9997
2 45674  53.0539  59.6518 0001387  97.6346 262.4800 15.06388157185618
STARLINK-1458           
1 45675U 20035U   23283.71017211  .00001337  00000+0  10862-3 0  9998
2 45675  53.0552  61.4881 0001379  84.7908 275.3239 15.06393166185918
STARLINK-1460           
1 45676U 20035V   23284.41050659  .00013034  00000+0  89280-3 0  9997
2 45676  53.0545  58.3431 0001814  72.4748 287.6439 15.06377692185641
STARLINK-1392           
1 45677U 20035W   23284.42155874  .00005827  00000+0  40992-3 0  9992
2 45677  53.0551  58.2970 0001540 101.2041 258.9122 15.06385640185641
STARLINK-1393           
1 45678U 20035X   23284.34876473  .00026496  00000+0  17912-2 0  9999
2 45678  53.0559  48.6230 0001830  91.3040 268.8158 15.06395506185777
STARLINK-1394           
1 45679U 20035Y   23284.35244839  .00021429  00000+0  14531-2 0  9991
2 45679  53.0554  48.6055 0001310  88.1960 271.9179 15.06400086185785
STARLINK-1395           
1 45680U 20035Z   23284.09443656  .00041427  00000+0  27866-2 0  9997
2 45680  53.0542  49.7658 0002264  93.5779 266.5469 15.06361833185735
STARLINK-1396           
1 45681U 20035AA  23283.72512786  .00048022  00000+0  26838-2 0  9994
2 45681  53.0512  48.9555 0001210 163.3106 196.7926 15.13051119186127
STARLINK-1397           
1 45682U 20035AB  23284.36350640  .00028396  00000+0  19176-2 0  9994
2 45682  53.0557  48.5569 0001798  86.4689 273.6506 15.06399013185779
STARLINK-1399           
1 45683U 20035AC  23284.34507875  .00021277  00000+0  14431-2 0  9997
2 45683  53.0555  48.6398 0001758  93.0863 267.0327 15.06396153185773
STARLINK-1401           
1 45684U 20035AD  23284.34698792  .00082257  00000+0  39205-2 0  9998
2 45684  53.0582  40.5312 0001991 322.9048  37.1808 15.18405554185891
STARLINK-1402           
1 45685U 20035AE  23284.36848260  .00017728  00000+0  99468-3 0  9997
2 45685  53.0572  43.4958 0001256 102.5632 257.5501 15.13441556185844
STARLINK-1404           
1 45686U 20035AF  23284.37825226  .00012211  00000+0  83754-3 0  9999
2 45686  53.0553  48.4911 0001537  94.4159 265.7006 15.06385059185784
STARLINK-1408           
1 45688U 20035AH  23283.54004214  .00019470  00000+0  78352-3 0  9997
2 45688  53.0880  22.2761 0005423 192.5596 167.5267 15.24906016186494
STARLINK-1413           
1 45689U 20035AJ  23284.39668021  .00023600  00000+0  15982-2 0  9993
2 45689  53.0560  48.4090 0001302  87.6591 272.4547 15.06394681185783
STARLINK-1414           
1 45690U 20035AK  23284.35616690  .00055619  00000+0  37264-2 0  9998
2 45690  53.0550  48.8080 0001537  90.3442 269.7724 15.06371087185717
STARLINK-1415           
1 45691U 20035AL  23284.51463472  .00018983  00000+0  12897-2 0  9993
2 45691  53.0556  47.8768 0001593  95.4382 264.6789 15.06405172186211
STARLINK-1416           
1 45692U 20035AM  23284.30821737  .00026048  00000+0  17621-2 0  9994
2 45692  53.0560  48.8018 0001966  70.8445 289.2757 15.06379328185778
STARLINK-1417           
1 45693U 20035AN  23284.39299521  .00021177  00000+0  14360-2 0  9999
2 45693  53.0560  48.4268 0001767  95.5380 264.5811 15.06408065185782
STARLINK-1420           
1 45695U 20035AQ  23284.46024552  .00023721  00000+0  16049-2 0  9992
2 45695  53.0566  28.1149 0001543 101.6173 258.4989 15.06425543186075
STARLINK-1422           
1 45696U 20035AR  23284.40405642  .00008541  00000+0  59154-3 0  9998
2 45696  53.0551  48.3754 0001433  95.6573 264.4579 15.06402933185787
STARLINK-1351           
1 45697U 20035AS  23284.44644079  .00007152  00000+0  49856-3 0  9997
2 45697  53.0555  28.1863 0001306  80.0403 280.0733 15.06397079186071
STARLINK-1370           
1 45698U 20035AT  23284.30174558  .00023596  00000+0  15978-2 0  9990
2 45698  53.0562  28.8254 0001723  97.8459 262.2726 15.06396363186069
STARLINK-1398           
1 45699U 20035AU  23284.29163104  .00014754  00000+0  10076-2 0  9994
2 45699  53.0574  28.8779 0001480 106.0303 254.0849 15.06388968186096
STARLINK-1400           
1 45700U 20035AV  23284.28794853  .00063920  00000+0  42744-2 0  9993
2 45700  53.0562  28.8979 0002074 104.0432 256.0788 15.06373635186043
STARLINK-1403           
1 45701U 20035AW  23284.45012993  .00017599  00000+0  11968-2 0  9996
2 45701  53.0563  28.1667 0001369  98.9741 261.1403 15.06419156186075
STARLINK-1405           
1 45702U 20035AX  23284.29900758  .00015874  00000+0  10825-2 0  9999
2 45702  53.0556  28.8457 0001523  88.8954 271.2209 15.06387784186446
STARLINK-1407           
1 45703U 20035AY  23283.56549720  .00005318  00000+0  37555-3 0  9999
2 45703  53.0562  32.1350 0001575 107.1867 252.9295 15.06407792185935
STARLINK-1409           
1 45704U 20035AZ  23284.38744371  .00017629  00000+0  11996-2 0  9998
2 45704  53.0546  58.4469 0001578  99.1426 260.9742 15.06394480185647
STARLINK-1410           
1 45705U 20035BA  23284.34783659  .00016883  00000+0  11498-2 0  9995
2 45705  53.0531  58.6265 0002217 102.7321 257.3916 15.06391917185638
STARLINK-1411           
1 45706U 20035BB  23284.33954268  .00000148  00000+0  28815-4 0  9991
2 45706  53.0568  28.6678 0001319  98.6280 261.4859 15.06387032186055
STARLINK-1412           
1 45707U 20035BC  23283.73874821  .00034203  00000+0  23030-2 0  9992
2 45707  53.0561  31.3635 0001451  92.1039 268.0116 15.06415007186379
STARLINK-1418           
1 45708U 20035BD  23284.44274646  .00017070  00000+0  11612-2 0  9997
2 45708  53.0568  28.1998 0000881 104.4489 255.6598 15.06427710186072
STARLINK-1421           
1 45709U 20035BE  23284.08153360  .00052797  00000+0  35385-2 0  9995
2 45709  53.0558  29.8257 0001640  99.3536 260.7638 15.06383680186010
STARLINK-1423           
1 45710U 20035BF  23284.27689605  .00011084  00000+0  76175-3 0  9991
2 45710  53.0559  28.9505 0001718  72.4810 287.6367 15.06402612186049
STARLINK-1433           
1 45711U 20035BG  23284.45750464  .00015619  00000+0  10647-2 0  9993
2 45711  53.0555  28.1369 0001570  93.3524 266.7645 15.06415927186079
STARLINK-1434           
1 45712U 20035BH  23284.45381743  .00015713  00000+0  10709-2 0  9998
2 45712  53.0561  28.1531 0001225  82.0873 278.0255 15.06417336186076
STARLINK-1436 (VISORSAT)
1 45713U 20035BJ  23284.34139261  .00042775  00000+0  28752-2 0  9998
2 45713  53.0553  48.6574 0001779  82.9070 277.2121 15.06373636185777
STARLINK-1437           
1 45714U 20035BK  23284.46487157  .00024234  00000+0  16403-2 0  9992
2 45714  53.0560  28.1038 0001589  82.0772 278.0397 15.06397573186077
STARLINK-1461           
1 45730U 20038A   23284.14420752  .00026391  00000+0  17866-2 0  9996
2 45730  53.0533 229.5400 0001481  63.4714 296.6426 15.06346360184597
STARLINK-1465           
1 45731U 20038B   23284.22530846  .00013071  00000+0  89513-3 0  9992
2 45731  53.0546 229.1772 0001503  90.9128 269.2033 15.06386052184456
STARLINK-1466           
1 45732U 20038C   23284.14788474  .00018484  00000+0  12572-2 0  9999
2 45732  53.0543 229.5244 0001283 107.4160 252.6970 15.06380284184599
STARLINK-1467           
1 45733U 20038D   23284.17579034  .00019118  00000+0  78927-3 0  9995
2 45733  53.0730 201.0931 0007945  61.5274 298.6523 15.24044142184991
